ORBCOMM FM24            
1 25478U 98053D   25192.41182777  .00000468  00000+0  19939-3 0  9998
2 25478  45.0067 154.2325 0004104 328.6502  31.4101 14.38138702401212
ORBCOMM FM25            
1 25479U 98053E   25192.24470227  .00000546  00000+0  22513-3 0  9999
2 25479  45.0059 153.2988 0005996 346.2166  13.8518 14.38110853401202
ORBCOMM FM26            
1 25480U 98053F   25192.20245227  .00000396  00000+0  17933-3 0  9990
2 25480  45.0057 150.1301 0007099   5.7387 354.3541 14.37166756401206
ORBCOMM FM27            
1 25481U 98053G   25192.23189712  .00000549  00000+0  22577-3 0  9990
2 25481  45.0041 153.5539 0002742 319.5694  40.4950 14.38141747401174
ORBCOMM FM28            
1 25482U 98053H   25192.12751848  .00000460  00000+0  19617-3 0  9997
2 25482  45.0056  91.5147 0005204  44.9316 315.1953 14.38327562401977
ORBCOMM FM30            
1 25980U 99065A   25192.46774095  .00000447  00000+0  19558-3 0  9999
2 25980  45.0330 334.7843 0007163 139.7683 220.3697 14.37336150338474
ORBCOMM FM31            
1 25981U 99065B   25192.44203812  .00000387  00000+0  17580-3 0  9998
2 25981  45.0241 328.3891 0004998 166.5607 193.5375 14.37274056338464
ORBCOMM FM32            
1 25982U 99065C   25192.43512242  .00000400  00000+0  18353-3 0  9993
2 25982  45.0172 345.1634 0007150 155.7445 204.3741 14.36318240338217
